SL-16 R/B               
1 22566U 93016B   25359.14449373  .00000288  00000+0  17253-3 0  9997
2 22566  71.0083  11.7496 0008049  72.9770 287.2234 14.15292742691622
COSMOS 2242             
1 22626U 93024A   25358.94185073  .00002166  00000+0  18967-3 0  9994
2 22626  82.5189 338.1809 0015872 190.7733 169.3152 14.96155092769212
SL-16 R/B               
1 22803U 93059B   25358.94281270  .00000310  00000+0  17699-3 0  9995
2 22803  70.9881 168.7528 0018589 318.4418  41.5291 14.17215767668943
ARIANE 40 R/B           
1 22830U 93061H   25359.11842297  .00000244  00000+0  10544-3 0  9998
2 22830  98.5059  64.4223 0011499 141.0700 219.1315 14.32809296683420
COSMOS 2278             
1 23087U 94023A   25358.98352874  .00000043  00000+0  47341-4 0  9996
2 23087  71.0534 331.3939 0007808 157.6446 202.5018 14.14348419634245
SL-16 R/B               
1 23088U 94023B   25359.06398119 -.00000240  00000+0 -99339-4 0  9994
2 23088  70.9978 227.6052 0002077   3.2904 356.8231 14.14999689635531
SL-16 R/B               
1 23343U 94074B   25359.12186948  .00000482  00000+0  71340-4 0  9994
2 23343  97.7190  27.9336 0008041 101.9972 324.8021 14.79303158676226
SL-16 R/B               
1 23405U 94077B   25358.86271225 -.00000182  00000+0 -68718-4 0  9993
2 23405  70.9820 149.9100 0005049 275.3583  84.6964 14.15552330605644
ARIANE 40+ R/B          
1 23561U 95021B   25359.10699903  .00000322  00000+0  11668-3 0  9996
2 23561  98.4635  66.5459 0006824  15.4358  43.5292 14.39704612608517
SL-16 R/B               
1 23705U 95058B   25359.14868242 -.00000169  00000+0 -62088-4 0  9998
2 23705  71.0217 336.7513 0014639 238.9883 120.9803 14.15481453557308
SL-16 R/B               
1 24298U 96051B   25359.09495755 -.00000017  00000+0  17407-4 0  9995
2 24298  70.7595 333.1310 0019488 246.2016 113.7060 14.12397570511111
ORBVIEW 2 (SEASTAR)     
1 24883U 97037A   25358.97437662  .00000303  00000+0  12169-3 0  9995
2 24883  98.8463 156.3572 0001226 287.7333  72.3717 14.35425495497759
