CCSDS_OMM_VERS = 2.0
CREATION_DATE  = 
ORIGINATOR     = 

OBJECT_NAME    = SL-16 R/B
OBJECT_ID      = 1993-016B
CENTER_NAME    = EARTH
REF_FRAME      = TEME
TIME_SYSTEM    = UTC
MEAN_ELEMENT_THEORY = SGP/SGP4

EPOCH          = 2025-12-25T03:28:04.258272
MEAN_MOTION    = 14.15292742
ECCENTRICITY   = .0008049
INCLINATION    = 71.0083
RA_OF_ASC_NODE = 11.7496
ARG_OF_PERICENTER = 72.9770
MEAN_ANOMALY   = 287.2234

EPHEMERIS_TYPE = 0
CLASSIFICATION_TYPE = U
NORAD_CAT_ID   = 22566
ELEMENT_SET_NO = 999
REV_AT_EPOCH   = 69162
BSTAR          = .17253E-3
MEAN_MOTION_DOT = .288E-5
MEAN_MOTION_DDOT = 0

CCSDS_OMM_VERS = 2.0
CREATION_DATE  = 
ORIGINATOR     = 

OBJECT_NAME    = COSMOS 2242
OBJECT_ID      = 1993-024A
CENTER_NAME    = EARTH
REF_FRAME      = TEME
TIME_SYSTEM    = UTC
MEAN_ELEMENT_THEORY = SGP/SGP4

EPOCH          = 2025-12-24T22:36:15.903072
MEAN_MOTION    = 14.96155092
ECCENTRICITY   = .0015872
INCLINATION    = 82.5189
RA_OF_ASC_NODE = 338.1809
ARG_OF_PERICENTER = 190.7733
MEAN_ANOMALY   = 169.3152

EPHEMERIS_TYPE = 0
CLASSIFICATION_TYPE = U
NORAD_CAT_ID   = 22626
ELEMENT_SET_NO = 999
REV_AT_EPOCH   = 76921
BSTAR          = .18967E-3
MEAN_MOTION_DOT = .2166E-4
MEAN_MOTION_DDOT = 0

CCSDS_OMM_VERS = 2.0
CREATION_DATE  = 
ORIGINATOR     = 

OBJECT_NAME    = SL-16 R/B
OBJECT_ID      = 1993-059B
CENTER_NAME    = EARTH
REF_FRAME      = TEME
TIME_SYSTEM    = UTC
MEAN_ELEMENT_THEORY = SGP/SGP4

EPOCH          = 2025-12-24T22:37:39.017280
MEAN_MOTION    = 14.17215767
ECCENTRICITY   = .0018589
INCLINATION    = 70.9881
RA_OF_ASC_NODE = 168.7528
ARG_OF_PERICENTER = 318.4418
MEAN_ANOMALY   = 41.5291

EPHEMERIS_TYPE = 0
CLASSIFICATION_TYPE = U
NORAD_CAT_ID   = 22803
ELEMENT_SET_NO = 999
REV_AT_EPOCH   = 66894
BSTAR          = .17699E-3
MEAN_MOTION_DOT = .31E-5
MEAN_MOTION_DDOT = 0

CCSDS_OMM_VERS = 2.0
CREATION_DATE  = 
ORIGINATOR     = 

OBJECT_NAME    = ARIANE 40 R/B
OBJECT_ID      = 1993-061H
CENTER_NAME    = EARTH
REF_FRAME      = TEME
TIME_SYSTEM    = UTC
MEAN_ELEMENT_THEORY = SGP/SGP4

EPOCH          = 2025-12-25T02:50:31.744608
MEAN_MOTION    = 14.32809296
ECCENTRICITY   = .0011499
INCLINATION    = 98.5059
RA_OF_ASC_NODE = 64.4223
ARG_OF_PERICENTER = 141.0700
MEAN_ANOMALY   = 219.1315

EPHEMERIS_TYPE = 0
CLASSIFICATION_TYPE = U
NORAD_CAT_ID   = 22830
ELEMENT_SET_NO = 999
REV_AT_EPOCH   = 68342
BSTAR          = .10544E-3
MEAN_MOTION_DOT = .244E-5
MEAN_MOTION_DDOT = 0

CCSDS_OMM_VERS = 2.0
CREATION_DATE  = 
ORIGINATOR     = 

OBJECT_NAME    = COSMOS 2278
OBJECT_ID      = 1994-023A
CENTER_NAME    = EARTH
REF_FRAME      = TEME
TIME_SYSTEM    = UTC
MEAN_ELEMENT_THEORY = SGP/SGP4

EPOCH          = 2025-12-24T23:36:16.883136
MEAN_MOTION    = 14.14348419
ECCENTRICITY   = .0007808
INCLINATION    = 71.0534
RA_OF_ASC_NODE = 331.3939
ARG_OF_PERICENTER = 157.6446
MEAN_ANOMALY   = 202.5018

EPHEMERIS_TYPE = 0
CLASSIFICATION_TYPE = U
NORAD_CAT_ID   = 23087
ELEMENT_SET_NO = 999
REV_AT_EPOCH   = 63424
BSTAR          = .47341E-4
MEAN_MOTION_DOT = .43E-6
MEAN_MOTION_DDOT = 0

CCSDS_OMM_VERS = 2.0
CREATION_DATE  = 
ORIGINATOR     = 

OBJECT_NAME    = SL-16 R/B
OBJECT_ID      = 1994-023B
CENTER_NAME    = EARTH
REF_FRAME      = TEME
TIME_SYSTEM    = UTC
MEAN_ELEMENT_THEORY = SGP/SGP4

EPOCH          = 2025-12-25T01:32:07.974816
MEAN_MOTION    = 14.14999689
ECCENTRICITY   = .0002077
INCLINATION    = 70.9978
RA_OF_ASC_NODE = 227.6052
ARG_OF_PERICENTER = 3.2904
MEAN_ANOMALY   = 356.8231

EPHEMERIS_TYPE = 0
CLASSIFICATION_TYPE = U
NORAD_CAT_ID   = 23088
ELEMENT_SET_NO = 999
REV_AT_EPOCH   = 63553
BSTAR          = -.99339E-4
MEAN_MOTION_DOT = -.24E-5
MEAN_MOTION_DDOT = 0

CCSDS_OMM_VERS = 2.0
CREATION_DATE  = 
ORIGINATOR     = 

OBJECT_NAME    = SL-16 R/B
OBJECT_ID      = 1994-074B
CENTER_NAME    = EARTH
REF_FRAME      = TEME
TIME_SYSTEM    = UTC
MEAN_ELEMENT_THEORY = SGP/SGP4

EPOCH          = 2025-12-25T02:55:29.523072
MEAN_MOTION    = 14.79303158
ECCENTRICITY   = .0008041
INCLINATION    = 97.7190
RA_OF_ASC_NODE = 27.9336
ARG_OF_PERICENTER = 101.9972
MEAN_ANOMALY   = 324.8021

EPHEMERIS_TYPE = 0
CLASSIFICATION_TYPE = U
NORAD_CAT_ID   = 23343
ELEMENT_SET_NO = 999
REV_AT_EPOCH   = 67622
BSTAR          = .7134E-4
MEAN_MOTION_DOT = .482E-5
MEAN_MOTION_DDOT = 0

CCSDS_OMM_VERS = 2.0
CREATION_DATE  = 
ORIGINATOR     = 

OBJECT_NAME    = SL-16 R/B
OBJECT_ID      = 1994-077B
CENTER_NAME    = EARTH
REF_FRAME      = TEME
TIME_SYSTEM    = UTC
MEAN_ELEMENT_THEORY = SGP/SGP4

EPOCH          = 2025-12-24T20:42:18.338400
MEAN_MOTION    = 14.15552330
ECCENTRICITY   = .0005049
INCLINATION    = 70.9820
RA_OF_ASC_NODE = 149.9100
ARG_OF_PERICENTER = 275.3583
MEAN_ANOMALY   = 84.6964

EPHEMERIS_TYPE = 0
CLASSIFICATION_TYPE = U
NORAD_CAT_ID   = 23405
ELEMENT_SET_NO = 999
REV_AT_EPOCH   = 60564
BSTAR          = -.68718E-4
MEAN_MOTION_DOT = -.182E-5
MEAN_MOTION_DDOT = 0

CCSDS_OMM_VERS = 2.0
CREATION_DATE  = 
ORIGINATOR     = 

OBJECT_NAME    = ARIANE 40+ R/B
OBJECT_ID      = 1995-021B
CENTER_NAME    = EARTH
REF_FRAME      = TEME
TIME_SYSTEM    = UTC
MEAN_ELEMENT_THEORY = SGP/SGP4

EPOCH          = 2025-12-25T02:34:04.716192
MEAN_MOTION    = 14.39704612
ECCENTRICITY   = .0006824
INCLINATION    = 98.4635
RA_OF_ASC_NODE = 66.5459
ARG_OF_PERICENTER = 15.4358
MEAN_ANOMALY   = 43.5292

EPHEMERIS_TYPE = 0
CLASSIFICATION_TYPE = U
NORAD_CAT_ID   = 23561
ELEMENT_SET_NO = 999
REV_AT_EPOCH   = 60851
BSTAR          = .11668E-3
MEAN_MOTION_DOT = .322E-5
MEAN_MOTION_DDOT = 0

CCSDS_OMM_VERS = 2.0
CREATION_DATE  = 
ORIGINATOR     = 

OBJECT_NAME    = SL-16 R/B
OBJECT_ID      = 1995-058B
CENTER_NAME    = EARTH
REF_FRAME      = TEME
TIME_SYSTEM    = UTC
MEAN_ELEMENT_THEORY = SGP/SGP4

EPOCH          = 2025-12-25T03:34:06.161088
MEAN_MOTION    = 14.15481453
ECCENTRICITY   = .0014639
INCLINATION    = 71.0217
RA_OF_ASC_NODE = 336.7513
ARG_OF_PERICENTER = 238.9883
MEAN_ANOMALY   = 120.9803

EPHEMERIS_TYPE = 0
CLASSIFICATION_TYPE = U
NORAD_CAT_ID   = 23705
ELEMENT_SET_NO = 999
REV_AT_EPOCH   = 55730
BSTAR          = -.62088E-4
MEAN_MOTION_DOT = -.169E-5
MEAN_MOTION_DDOT = 0

CCSDS_OMM_VERS = 2.0
CREATION_DATE  = 
ORIGINATOR     = 

OBJECT_NAME    = SL-16 R/B
OBJECT_ID      = 1996-051B
CENTER_NAME    = EARTH
REF_FRAME      = TEME
TIME_SYSTEM    = UTC
MEAN_ELEMENT_THEORY = SGP/SGP4

EPOCH          = 2025-12-25T02:16:44.332320
MEAN_MOTION    = 14.12397570
ECCENTRICITY   = .0019488
INCLINATION    = 70.7595
RA_OF_ASC_NODE = 333.1310
ARG_OF_PERICENTER = 246.2016
MEAN_ANOMALY   = 113.7060

EPHEMERIS_TYPE = 0
CLASSIFICATION_TYPE = U
NORAD_CAT_ID   = 24298
ELEMENT_SET_NO = 999
REV_AT_EPOCH   = 51111
BSTAR          = .17407E-4
MEAN_MOTION_DOT = -.17E-6
MEAN_MOTION_DDOT = 0

CCSDS_OMM_VERS = 2.0
CREATION_DATE  = 
ORIGINATOR     = 

OBJECT_NAME    = ORBVIEW 2 (SEASTAR)
OBJECT_ID      = 1997-037A
CENTER_NAME    = EARTH
REF_FRAME      = TEME
TIME_SYSTEM    = UTC
MEAN_ELEMENT_THEORY = SGP/SGP4

EPOCH          = 2025-12-24T23:23:06.139968
MEAN_MOTION    = 14.35425495
ECCENTRICITY   = .0001226
INCLINATION    = 98.8463
RA_OF_ASC_NODE = 156.3572
ARG_OF_PERICENTER = 287.7333
MEAN_ANOMALY   = 72.3717

EPHEMERIS_TYPE = 0
CLASSIFICATION_TYPE = U
NORAD_CAT_ID   = 24883
ELEMENT_SET_NO = 999
REV_AT_EPOCH   = 49775
BSTAR          = .12169E-3
MEAN_MOTION_DOT = .303E-5
MEAN_MOTION_DDOT = 0

